name,phone,email,postalZip,country
Stuart Watkins,1-288-433-8646,aenean.euismod@yahoo.edu,23154,Belgium
Benjamin Ward,(518) 572-1803,donec@google.couk,89514,Germany
Kaseem Wooten,(236) 584-8517,venenatis.lacus@outlook.couk,21661-01296,Singapore
Clark Park,(789) 517-1400,lacus.pede@outlook.net,25038,South Korea
Solomon Moody,(770) 517-8246,urna.ut.tincidunt@hotmail.couk,462826,United Kingdom
Richard Schultz,(334) 736-7803,duis@icloud.net,08330,Norway
Oscar Atkins,1-426-342-8432,ligula.aenean@icloud.couk,624256,Netherlands
Chaim Fleming,(617) 271-4421,etiam.vestibulum@hotmail.com,6639,Brazil
Karen Caldwell,(254) 869-2742,consectetuer.mauris@yahoo.net,390669,Chile
Zenaida O'connor,(134) 628-3422,libero.proin@icloud.edu,14819,France
Grady Carter,1-436-529-9856,pellentesque.habitant@outlook.couk,89294-515,Philippines
Nell Stevenson,(345) 434-3250,porttitor.scelerisque.neque@outlook.net,11862,China
Delilah Sims,1-749-255-6110,quisque.ac@outlook.couk,8168,United States
Octavius Wall,(717) 827-8985,magna.tellus@outlook.org,71736,Chile
Liberty Hughes,1-101-191-8863,lacus.aliquam@yahoo.couk,67148-232,Pakistan
Arsenio Richardson,1-116-836-2569,sollicitudin@google.org,652399,United Kingdom
Grady Trujillo,(217) 553-8352,eu.dui@aol.org,6639-1112,Canada
Kevin Ross,(804) 565-2898,lectus.quis.massa@yahoo.net,333987,United States
Ashton Gaines,1-187-267-2285,natoque.penatibus.et@aol.org,3411,Norway
Eliana Bean,1-244-687-4322,cras.dolor.dolor@hotmail.com,555058,Nigeria
